{"type": "FeatureCollection", "features": [ {"type": "Feature", "properties": {"norad_id": 67070, "name": "DEAR-5", "group": "last-30-days", "lat": -8.161750217574093, "lon": -117.10758468792798, "alt_km": 518.8272532730371, "timestamp": "2025-12-21T03:56:49.618780+00:00", "meta": {"OBJECT_NAME": "DEAR-5", "OBJECT_ID": "2025-296B", "EPOCH": "2025-12-20T14:27:47.771136", "MEAN_MOTION": 15.16880771, "ECCENTRICITY": 0.0016088, "INCLINATION": 41.3553, "RA_OF_ASC_NODE": 56.714, "ARG_OF_PERICENTER": 82.8141, "MEAN_ANOMALY": 277.4509, "EPHEMERIS_TYPE": 0, "CLASSIFICATION_TYPE": "U", "NORAD_CAT_ID": 67070, "ELEMENT_SET_NO": 999, "REV_AT_EPOCH": 114, "BSTAR": 0.00017212, "MEAN_MOTION_DOT": 3.26e-05, "MEAN_MOTION_DDOT": 0}, "tle": {"line1": "1 67070U 25296B   25354.60263624  .00003260  00000+0  17212-3 0  9998", "line2": "2 67070  41.3553  56.7140 0016088  82.8141 277.4509 15.16880771  1147"}}, "geometry": {"type": "Point", "coordinates": [-117.10758468792798, -8.161750217574093]}}, {"type": "Feature", "properties": {"norad_id": 67071, "name": "KZ-11 R/B", "group": "last-30-days", "lat": 16.77749075402352, "lon": 76.0737671023694, "alt_km": 136.92924345637311, "timestamp": "2025-12-21T03:56:49.618791+00:00", "meta": {"OBJECT_NAME": "KZ-11 R/B", "OBJECT_ID": "2025-296C", "EPOCH": "2025-12-20T13:35:59.156160", "MEAN_MOTION": 15.10636457, "ECCENTRICITY": 0.0581991, "INCLINATION": 41.3222, "RA_OF_ASC_NODE": 59.4281, "ARG_OF_PERICENTER": 8.2061, "MEAN_ANOMALY": 352.7804, "EPHEMERIS_TYPE": 0, "CLASSIFICATION_TYPE": "U", "NORAD_CAT_ID": 67071, "ELEMENT_SET_NO": 999, "REV_AT_EPOCH": 111, "BSTAR": 0.00050214993, "MEAN_MOTION_DOT": 0.06524805, "MEAN_MOTION_DDOT": 6.555933e-06}, "tle": {"line1": "1 67071U 25296C   25354.56665690  .06524805  65559-5  50215-3 0  9998", "line2": "2 67071  41.3222  59.4281 0581991   8.2061 352.7804 15.10636457  1116"}}, "geometry": {"type": "Point", "coordinates": [76.0737671023694, 16.77749075402352]}}, {"type": "Feature", "properties": {"norad_id": 67072, "name": "ELECTRON R/B", "group": "last-30-days", "lat": -80.03864821878932, "lon": -168.41040240283107, "alt_km": 254.26951973034738, "timestamp": "2025-12-21T03:56:49.618801+00:00", "meta": {"OBJECT_NAME": "ELECTRON R/B", "OBJECT_ID": "2025-297A", "EPOCH": "2025-12-20T20:47:08.999232", "MEAN_MOTION": 15.97243499, "ECCENTRICITY": 0.0169033, "INCLINATION": 97.4649, "RA_OF_ASC_NODE": 142.9606, "ARG_OF_PERICENTER": 203.2128, "MEAN_ANOMALY": 156.1453, "EPHEMERIS_TYPE": 0, "CLASSIFICATION_TYPE": "U", "NORAD_CAT_ID": 67072, "ELEMENT_SET_NO": 999, "REV_AT_EPOCH": 107, "BSTAR": 0.0012503, "MEAN_MOTION_DOT": 0.02779166, "MEAN_MOTION_DDOT": 2.2133e-06}, "tle": {"line1": "1 67072U 25297A   25354.86607638  .02779166  22133-5  12503-2 0  9997", "line2": "2 67072  97.4649 142.9606 0169033 203.2128 156.1453 15.97243499  1077"}}, "geometry": {"type": "Point", "coordinates": [-168.41040240283107, -80.03864821878932]}}, {"type": "Feature", "properties": {"norad_id": 67073, "name": "RAISE-4", "group": "last-30-days", "lat": -2.3700891018359878, "lon": -37.82532932872954, "alt_km": 550.5605031258638, "timestamp": "2025-12-21T03:56:49.618809+00:00", "meta": {"OBJECT_NAME": "RAISE-4", "OBJECT_ID": "2025-297B", "EPOCH": "2025-12-20T09:36:45.835200", "MEAN_MOTION": 15.07185014, "ECCENTRICITY": 0.0011383, "INCLINATION": 97.4855, "RA_OF_ASC_NODE": 141.7434, "ARG_OF_PERICENTER": 292.6192, "MEAN_ANOMALY": 67.3831, "EPHEMERIS_TYPE": 0, "CLASSIFICATION_TYPE": "U", "NORAD_CAT_ID": 67073, "ELEMENT_SET_NO": 999, "REV_AT_EPOCH": 94, "BSTAR": 0.00020098462, "MEAN_MOTION_DOT": 2.967e-05, "MEAN_MOTION_DDOT": 0}, "tle": {"line1": "1 67073U 25297B   25354.40053050  .00002967  00000+0  20098-3 0  9999", "line2": "2 67073  97.4855 141.7434 0011383 292.6192  67.3831 15.07185014   947"}}, "geometry": {"type": "Point", "coordinates": [-37.82532932872954, -2.3700891018359878]}}, {"type": "Feature", "properties": {"norad_id": 67074, "name": "ELECTRON KICK STAGE R/B", "group": "last-30-days", "lat": -44.948006181080316, "lon": 150.55672806622957, "alt_km": 367.35445214239644, "timestamp": "2025-12-21T03:56:49.618819+00:00", "meta": {"OBJECT_NAME": "ELECTRON KICK STAGE R/B", "OBJECT_ID": "2025-297C", "EPOCH": "2025-12-20T09:37:55.540992", "MEAN_MOTION": 15.56699224, "ECCENTRICITY": 0.01998799, "INCLINATION": 97.4822, "RA_OF_ASC_NODE": 142.2173, "ARG_OF_PERICENTER": 241.6709, "MEAN_ANOMALY": 116.4258, "EPHEMERIS_TYPE": 0, "CLASSIFICATION_TYPE": "U", "NORAD_CAT_ID": 67074, "ELEMENT_SET_NO": 999, "REV_AT_EPOCH": 97, "BSTAR": 0.0013588337, "MEAN_MOTION_DOT": 0.00249717, "MEAN_MOTION_DDOT": 1.8464781e-05}, "tle": {"line1": "1 67074U 25297C   25354.40133728  .00249717  18465-4  13588-2 0  9991", "line2": "2 67074  97.4822 142.2173 0199879 241.6709 116.4258 15.56699224   972"}}, "geometry": {"type": "Point", "coordinates": [150.55672806622957, -44.948006181080316]}}, {"type": "Feature", "properties": {"norad_id": 67075, "name": "STARLINK-36230", "group": "last-30-days", "lat": 3.7308694927751245, "lon": -132.45193291661255, "alt_km": 304.3159260445191, "timestamp": "2025-12-21T03:56:49.618828+00:00", "meta": {"OBJECT_NAME": "STARLINK-36230", "OBJECT_ID": "2025-298A", "EPOCH": "2025-12-20T20:00:01.999008", "MEAN_MOTION": 15.91092329, "ECCENTRICITY": 0.0003988, "INCLINATION": 69.9988, "RA_OF_ASC_NODE": 227.1462, "ARG_OF_PERICENTER": 269.3524, "MEAN_ANOMALY": 359.3497, "EPHEMERIS_TYPE": 0, "CLASSIFICATION_TYPE": "U", "NORAD_CAT_ID": 67075, "ELEMENT_SET_NO": 999, "REV_AT_EPOCH": 228, "BSTAR": -0.0051034, "MEAN_MOTION_DOT": -0.01609663, "MEAN_MOTION_DDOT": 0.00072137}, "tle": {"line1": "1 67075U 25298A   25354.83335647 -.01609663  72137-3 -51034-2 0  9990", "line2": "2 67075  69.9988 227.1462 0003988 269.3524 359.3497 15.91092329  2282"}}, "geometry": {"type": "Point", "coordinates": [-132.45193291661255, 3.7308694927751245]}}, {"type": "Feature", "properties": {"norad_id": 67076, "name": "STARLINK-36240", "group": "last-30-days", "lat": 5.203191116475096, "lon": -131.914172344059, "alt_km": 304.0971277831677, "timestamp": "2025-12-21T03:56:49.618837+00:00", "meta": {"OBJECT_NAME": "STARLINK-36240", "OBJECT_ID": "2025-298B", "EPOCH": "2025-12-20T20:00:01.999008", "MEAN_MOTION": 15.91152195, "ECCENTRICITY": 0.0003958, "INCLINATION": 69.9987, "RA_OF_ASC_NODE": 227.1442, "ARG_OF_PERICENTER": 267.6645, "MEAN_ANOMALY": 2.5354, "EPHEMERIS_TYPE": 0, "CLASSIFICATION_TYPE": "U", "NORAD_CAT_ID": 67076, "ELEMENT_SET_NO": 999, "REV_AT_EPOCH": 228, "BSTAR": -0.0050999, "MEAN_MOTION_DOT": -0.01613407, "MEAN_MOTION_DDOT": 0.0007249}, "tle": {"line1": "1 67076U 25298B   25354.83335647 -.01613407  72490-3 -50999-2 0  9993", "line2": "2 67076  69.9987 227.1442 0003958 267.6645   2.5354 15.91152195  2289"}}, "geometry": {"type": "Point", "coordinates": [-131.914172344059, 5.203191116475096]}}, {"type": "Feature", "properties": {"norad_id": 67077, "name": "STARLINK-36243", "group": "last-30-days", "lat": 6.9966821082321475, "lon": -131.2550192251973, "alt_km": 303.6550815706132, "timestamp": "2025-12-21T03:56:49.618846+00:00", "meta": {"OBJECT_NAME": "STARLINK-36243", "OBJECT_ID": "2025-298C", "EPOCH": "2025-12-20T20:00:01.999008", "MEAN_MOTION": 15.91219365, "ECCENTRICITY": 0.0003906, "INCLINATION": 69.9985, "RA_OF_ASC_NODE": 227.1421, "ARG_OF_PERICENTER": 269.2818, "MEAN_ANOMALY": 2.7478, "EPHEMERIS_TYPE": 0, "CLASSIFICATION_TYPE": "U", "NORAD_CAT_ID": 67077, "ELEMENT_SET_NO": 999, "REV_AT_EPOCH": 228, "BSTAR": -0.0050802, "MEAN_MOTION_DOT": -0.01612682, "MEAN_MOTION_DDOT": 0.00072478}, "tle": {"line1": "1 67077U 25298C   25354.83335647 -.01612682  72478-3 -50802-2 0  9997", "line2": "2 67077  69.9985 227.1421 0003906 269.2818   2.7478 15.91219365  2280"}}, "geometry": {"type": "Point", "coordinates": [-131.2550192251973, 6.9966821082321475]}}, {"type": "Feature", "properties": {"norad_id": 67078, "name": "STARLINK-36236", "group": "last-30-days", "lat": 8.331015244341339, "lon": -130.76142957196092, "alt_km": 303.32437585515436, "timestamp": "2025-12-21T03:56:49.618856+00:00", "meta": {"OBJECT_NAME": "STARLINK-36236", "OBJECT_ID": "2025-298D", "EPOCH": "2025-12-20T20:00:01.999008", "MEAN_MOTION": 15.91275545, "ECCENTRICITY": 0.0003918, "INCLINATION": 69.9986, "RA_OF_ASC_NODE": 227.1403, "ARG_OF_PERICENTER": 270.3447, "MEAN_ANOMALY": 3.0404, "EPHEMERIS_TYPE": 0, "CLASSIFICATION_TYPE": "U", "NORAD_CAT_ID": 67078, "ELEMENT_SET_NO": 999, "REV_AT_EPOCH": 228, "BSTAR": -0.0050773, "MEAN_MOTION_DOT": -0.01616341, "MEAN_MOTION_DDOT": 0.00072823}, "tle": {"line1": "1 67078U 25298D   25354.83335647 -.01616341  72823-3 -50773-2 0  9995", "line2": "2 67078  69.9986 227.1403 0003918 270.3447   3.0404 15.91275545  2281"}}, "geometry": {"type": "Point", "coordinates": [-130.76142957196092, 8.331015244341339]}}, {"type": "Feature", "properties": {"norad_id": 67079, "name": "STARLINK-36159", "group": "last-30-days", "lat": 10.147414027827248, "lon": -130.08312064885513, "alt_km": 302.9872106545363, "timestamp": "2025-12-21T03:56:49.618865+00:00", "meta": {"OBJECT_NAME": "STARLINK-36159", "OBJECT_ID": "2025-298E", "EPOCH": "2025-12-20T20:00:01.999008", "MEAN_MOTION": 15.91353217, "ECCENTRICITY": 0.0004026, "INCLINATION": 69.9987, "RA_OF_ASC_NODE": 227.1383, "ARG_OF_PERICENTER": 270.0067, "MEAN_ANOMALY": 5.228, "EPHEMERIS_TYPE": 0, "CLASSIFICATION_TYPE": "U", "NORAD_CAT_ID": 67079, "ELEMENT_SET_NO": 999, "REV_AT_EPOCH": 228, "BSTAR": -0.0051188, "MEAN_MOTION_DOT": -0.01635885, "MEAN_MOTION_DDOT": 0.00074519}, "tle": {"line1": "1 67079U 25298E   25354.83335647 -.01635885  74519-3 -51188-2 0  9995", "line2": "2 67079  69.9987 227.1383 0004026 270.0067   5.2280 15.91353217  2285"}}, "geometry": {"type": "Point", "coordinates": [-130.08312064885513, 10.147414027827248]}}]}